STARLINK-36520          
1 67466U 26008X   26037.58335648 -.02111803  00000+0 -31876-1 0  9998
2 67466  43.0000  22.5127 0001062 280.2905 175.3815 15.57122215  4793
STARLINK-36425          
1 67467U 26008Y   26037.58335648  .00019141  00000+0  33148-3 0  9993
2 67467  43.0000  22.8595 0000999 237.2461  77.8757 15.50562655  4793
STARLINK-36414          
1 67468U 26008Z   26037.58335648 -.02109868  00000+0 -34038-1 0  9991
2 67468  43.0002  22.3028 0001026 269.4465 269.6634 15.55346621  4798
STARLINK-36441          
1 67469U 26008AA  26037.58335648 -.01875089  00000+0 -34330-1 0  9991
2 67469  43.0004  22.4283 0001630 282.3006 205.3625 15.52062405  4790
STARLINK-36454          
1 67470U 26008AB  26037.58335648 -.02000872  00000+0 -33992-1 0  9997
2 67470  43.0005  22.3504 0001247 291.4069 228.5510 15.53775896  4798
STARLINK-36334          
1 67471U 26008AC  26037.58335648 -.02090971  00000+0 -31239-1 0  9999
2 67471  43.0004  22.2221 0000881 276.2286 295.0830 15.57363103  4790
STARLINK-36269          
1 67472U 26008AD  26037.58335648 -.02109865  00000+0 -33992-1 0  9991
2 67472  43.0003  22.2795 0000893 270.5981 276.7386 15.55384291  4812
STARLINK-36408          
1 67473U 26008AE  26037.58335648 -.02299948  00000+0 -40972-1 0  9990
2 67473  43.0001  22.3762 0000556 261.4705 246.7766 15.52979621  4818
ALSAT-3A                
1 67474U 26009A   26037.61118666  .00009571  00000+0  40404-3 0  9994
2 67474  97.4679 112.2805 0012322 177.1563 182.9746 15.23417433  3396
CZ-2C R/B               
1 67475U 26009B   26037.64807460  .00004530  00000+0  30462-3 0  9998
2 67475  97.1758 110.4773 0100344 145.2009 215.5835 15.03114135  3415
TIANQI-37               
1 67476U 26010A   26037.29855510  .00000372  00000+0  26656-3 0  9991
2 67476  44.9830 305.6702 0012954  60.0656 300.1468 14.13527209  3040
TIANQI-38               
1 67477U 26010B   26037.29465743  .00000411  00000+0  28492-3 0  9991
2 67477  44.9792 305.6411 0011782  65.3630 294.8434 14.13904375  3048
