CCSDS_OMM_VERS = 2.0
CREATION_DATE  = 
ORIGINATOR     = 

OBJECT_NAME    = STARLINK-36520
OBJECT_ID      = 2026-008X
CENTER_NAME    = EARTH
REF_FRAME      = TEME
TIME_SYSTEM    = UTC
MEAN_ELEMENT_THEORY = SGP/SGP4

EPOCH          = 2026-02-06T14:00:01.999872
MEAN_MOTION    = 15.57122215
ECCENTRICITY   = .00010623
INCLINATION    = 43.0000
RA_OF_ASC_NODE = 22.5127
ARG_OF_PERICENTER = 280.2905
MEAN_ANOMALY   = 175.3815

EPHEMERIS_TYPE = 0
CLASSIFICATION_TYPE = U
NORAD_CAT_ID   = 67466
ELEMENT_SET_NO = 999
REV_AT_EPOCH   = 479
BSTAR          = -.31875787E-1
MEAN_MOTION_DOT = -.2111803E-1
MEAN_MOTION_DDOT = 0

CCSDS_OMM_VERS = 2.0
CREATION_DATE  = 
ORIGINATOR     = 

OBJECT_NAME    = STARLINK-36425
OBJECT_ID      = 2026-008Y
CENTER_NAME    = EARTH
REF_FRAME      = TEME
TIME_SYSTEM    = UTC
MEAN_ELEMENT_THEORY = SGP/SGP4

EPOCH          = 2026-02-06T14:00:01.999872
MEAN_MOTION    = 15.50562655
ECCENTRICITY   = .00009994
INCLINATION    = 43.0000
RA_OF_ASC_NODE = 22.8595
ARG_OF_PERICENTER = 237.2461
MEAN_ANOMALY   = 77.8757

EPHEMERIS_TYPE = 0
CLASSIFICATION_TYPE = U
NORAD_CAT_ID   = 67467
ELEMENT_SET_NO = 999
REV_AT_EPOCH   = 479
BSTAR          = .33147922E-3
MEAN_MOTION_DOT = .19141E-3
MEAN_MOTION_DDOT = 0

CCSDS_OMM_VERS = 2.0
CREATION_DATE  = 
ORIGINATOR     = 

OBJECT_NAME    = STARLINK-36414
OBJECT_ID      = 2026-008Z
CENTER_NAME    = EARTH
REF_FRAME      = TEME
TIME_SYSTEM    = UTC
MEAN_ELEMENT_THEORY = SGP/SGP4

EPOCH          = 2026-02-06T14:00:01.999872
MEAN_MOTION    = 15.55346621
ECCENTRICITY   = .00010269
INCLINATION    = 43.0002
RA_OF_ASC_NODE = 22.3028
ARG_OF_PERICENTER = 269.4465
MEAN_ANOMALY   = 269.6634

EPHEMERIS_TYPE = 0
CLASSIFICATION_TYPE = U
NORAD_CAT_ID   = 67468
ELEMENT_SET_NO = 999
REV_AT_EPOCH   = 479
BSTAR          = -.34038134E-1
MEAN_MOTION_DOT = -.2109868E-1
MEAN_MOTION_DDOT = 0

CCSDS_OMM_VERS = 2.0
CREATION_DATE  = 
ORIGINATOR     = 

OBJECT_NAME    = STARLINK-36441
OBJECT_ID      = 2026-008AA
CENTER_NAME    = EARTH
REF_FRAME      = TEME
TIME_SYSTEM    = UTC
MEAN_ELEMENT_THEORY = SGP/SGP4

EPOCH          = 2026-02-06T14:00:01.999872
MEAN_MOTION    = 15.52062405
ECCENTRICITY   = .00016301
INCLINATION    = 43.0004
RA_OF_ASC_NODE = 22.4283
ARG_OF_PERICENTER = 282.3006
MEAN_ANOMALY   = 205.3625

EPHEMERIS_TYPE = 0
CLASSIFICATION_TYPE = U
NORAD_CAT_ID   = 67469
ELEMENT_SET_NO = 999
REV_AT_EPOCH   = 479
BSTAR          = -.34329581E-1
MEAN_MOTION_DOT = -.1875089E-1
MEAN_MOTION_DDOT = 0

CCSDS_OMM_VERS = 2.0
CREATION_DATE  = 
ORIGINATOR     = 

OBJECT_NAME    = STARLINK-36454
OBJECT_ID      = 2026-008AB
CENTER_NAME    = EARTH
REF_FRAME      = TEME
TIME_SYSTEM    = UTC
MEAN_ELEMENT_THEORY = SGP/SGP4

EPOCH          = 2026-02-06T14:00:01.999872
MEAN_MOTION    = 15.53775896
ECCENTRICITY   = .00012478
INCLINATION    = 43.0005
RA_OF_ASC_NODE = 22.3504
ARG_OF_PERICENTER = 291.4069
MEAN_ANOMALY   = 228.5510

EPHEMERIS_TYPE = 0
CLASSIFICATION_TYPE = U
NORAD_CAT_ID   = 67470
ELEMENT_SET_NO = 999
REV_AT_EPOCH   = 479
BSTAR          = -.33991912E-1
MEAN_MOTION_DOT = -.2000872E-1
MEAN_MOTION_DDOT = 0

CCSDS_OMM_VERS = 2.0
CREATION_DATE  = 
ORIGINATOR     = 

OBJECT_NAME    = STARLINK-36334
OBJECT_ID      = 2026-008AC
CENTER_NAME    = EARTH
REF_FRAME      = TEME
TIME_SYSTEM    = UTC
MEAN_ELEMENT_THEORY = SGP/SGP4

EPOCH          = 2026-02-06T14:00:01.999872
MEAN_MOTION    = 15.57363103
ECCENTRICITY   = .00008816
INCLINATION    = 43.0004
RA_OF_ASC_NODE = 22.2221
ARG_OF_PERICENTER = 276.2286
MEAN_ANOMALY   = 295.0830

EPHEMERIS_TYPE = 0
CLASSIFICATION_TYPE = U
NORAD_CAT_ID   = 67471
ELEMENT_SET_NO = 999
REV_AT_EPOCH   = 479
BSTAR          = -.31238658E-1
MEAN_MOTION_DOT = -.2090971E-1
MEAN_MOTION_DDOT = 0

CCSDS_OMM_VERS = 2.0
CREATION_DATE  = 
ORIGINATOR     = 

OBJECT_NAME    = STARLINK-36269
OBJECT_ID      = 2026-008AD
CENTER_NAME    = EARTH
REF_FRAME      = TEME
TIME_SYSTEM    = UTC
MEAN_ELEMENT_THEORY = SGP/SGP4

EPOCH          = 2026-02-06T14:00:01.999872
MEAN_MOTION    = 15.55384291
ECCENTRICITY   = .00008935
INCLINATION    = 43.0003
RA_OF_ASC_NODE = 22.2795
ARG_OF_PERICENTER = 270.5981
MEAN_ANOMALY   = 276.7386

EPHEMERIS_TYPE = 0
CLASSIFICATION_TYPE = U
NORAD_CAT_ID   = 67472
ELEMENT_SET_NO = 999
REV_AT_EPOCH   = 481
BSTAR          = -.33991847E-1
MEAN_MOTION_DOT = -.2109865E-1
MEAN_MOTION_DDOT = 0

CCSDS_OMM_VERS = 2.0
CREATION_DATE  = 
ORIGINATOR     = 

OBJECT_NAME    = STARLINK-36408
OBJECT_ID      = 2026-008AE
CENTER_NAME    = EARTH
REF_FRAME      = TEME
TIME_SYSTEM    = UTC
MEAN_ELEMENT_THEORY = SGP/SGP4

EPOCH          = 2026-02-06T14:00:01.999872
MEAN_MOTION    = 15.52979621
ECCENTRICITY   = .0000556
INCLINATION    = 43.0001
RA_OF_ASC_NODE = 22.3762
ARG_OF_PERICENTER = 261.4705
MEAN_ANOMALY   = 246.7766

EPHEMERIS_TYPE = 0
CLASSIFICATION_TYPE = U
NORAD_CAT_ID   = 67473
ELEMENT_SET_NO = 999
REV_AT_EPOCH   = 481
BSTAR          = -.40971639E-1
MEAN_MOTION_DOT = -.2299948E-1
MEAN_MOTION_DDOT = 0

CCSDS_OMM_VERS = 2.0
CREATION_DATE  = 
ORIGINATOR     = 

OBJECT_NAME    = ALSAT-3A
OBJECT_ID      = 2026-009A
CENTER_NAME    = EARTH
REF_FRAME      = TEME
TIME_SYSTEM    = UTC
MEAN_ELEMENT_THEORY = SGP/SGP4

EPOCH          = 2026-02-06T14:40:06.527424
MEAN_MOTION    = 15.23417433
ECCENTRICITY   = .00123224
INCLINATION    = 97.4679
RA_OF_ASC_NODE = 112.2805
ARG_OF_PERICENTER = 177.1563
MEAN_ANOMALY   = 182.9746

EPHEMERIS_TYPE = 0
CLASSIFICATION_TYPE = U
NORAD_CAT_ID   = 67474
ELEMENT_SET_NO = 999
REV_AT_EPOCH   = 339
BSTAR          = .40404298E-3
MEAN_MOTION_DOT = .9571E-4
MEAN_MOTION_DDOT = 0

CCSDS_OMM_VERS = 2.0
CREATION_DATE  = 
ORIGINATOR     = 

OBJECT_NAME    = CZ-2C R/B
OBJECT_ID      = 2026-009B
CENTER_NAME    = EARTH
REF_FRAME      = TEME
TIME_SYSTEM    = UTC
MEAN_ELEMENT_THEORY = SGP/SGP4

EPOCH          = 2026-02-06T15:33:13.645440
MEAN_MOTION    = 15.03114135
ECCENTRICITY   = .01003443
INCLINATION    = 97.1758
RA_OF_ASC_NODE = 110.4773
ARG_OF_PERICENTER = 145.2009
MEAN_ANOMALY   = 215.5835

EPHEMERIS_TYPE = 0
CLASSIFICATION_TYPE = U
NORAD_CAT_ID   = 67475
ELEMENT_SET_NO = 999
REV_AT_EPOCH   = 341
BSTAR          = .30462298E-3
MEAN_MOTION_DOT = .453E-4
MEAN_MOTION_DDOT = 0

CCSDS_OMM_VERS = 2.0
CREATION_DATE  = 
ORIGINATOR     = 

OBJECT_NAME    = TIANQI-37
OBJECT_ID      = 2026-010A
CENTER_NAME    = EARTH
REF_FRAME      = TEME
TIME_SYSTEM    = UTC
MEAN_ELEMENT_THEORY = SGP/SGP4

EPOCH          = 2026-02-06T07:09:55.160640
MEAN_MOTION    = 14.13527209
ECCENTRICITY   = .0012954
INCLINATION    = 44.9830
RA_OF_ASC_NODE = 305.6702
ARG_OF_PERICENTER = 60.0656
MEAN_ANOMALY   = 300.1468

EPHEMERIS_TYPE = 0
CLASSIFICATION_TYPE = U
NORAD_CAT_ID   = 67476
ELEMENT_SET_NO = 999
REV_AT_EPOCH   = 304
BSTAR          = .26656E-3
MEAN_MOTION_DOT = .372E-5
MEAN_MOTION_DDOT = 0

CCSDS_OMM_VERS = 2.0
CREATION_DATE  = 
ORIGINATOR     = 

OBJECT_NAME    = TIANQI-38
OBJECT_ID      = 2026-010B
CENTER_NAME    = EARTH
REF_FRAME      = TEME
TIME_SYSTEM    = UTC
MEAN_ELEMENT_THEORY = SGP/SGP4

EPOCH          = 2026-02-06T07:04:18.401952
MEAN_MOTION    = 14.13904375
ECCENTRICITY   = .0011782
INCLINATION    = 44.9792
RA_OF_ASC_NODE = 305.6411
ARG_OF_PERICENTER = 65.3630
MEAN_ANOMALY   = 294.8434

EPHEMERIS_TYPE = 0
CLASSIFICATION_TYPE = U
NORAD_CAT_ID   = 67477
ELEMENT_SET_NO = 999
REV_AT_EPOCH   = 304
BSTAR          = .28492E-3
MEAN_MOTION_DOT = .411E-5
MEAN_MOTION_DDOT = 0

